{
    "links": {
        "self": "http://www.neowsapp.com/rest/v1/neo/3610173?api_key=iIulBulltgU6a56xZRHN4H3l9WmuAYTsLGpBGhQ2"
    },
    "id": "3610173",
    "neo_reference_id": "3610173",
    "name": "(2012 TD79)",
    "designation": "2012 TD79",
    "nasa_jpl_url": "http://ssd.jpl.nasa.gov/sbdb.cgi?sstr=3610173",
    "absolute_magnitude_h": 24.2,
    "estimated_diameter": {
        "kilometers": {
            "estimated_diameter_min": 0.0384197891,
            "estimated_diameter_max": 0.0859092601
        },
        "meters": {
            "estimated_diameter_min": 38.4197891064,
            "estimated_diameter_max": 85.9092601232
        },
        "miles": {
            "estimated_diameter_min": 0.0238729428,
            "estimated_diameter_max": 0.0533815229
        },
        "feet": {
            "estimated_diameter_min": 126.0491808919,
            "estimated_diameter_max": 281.8545369825
        }
    },
    "is_potentially_hazardous_asteroid": false,
    "close_approach_data": [
        {
            "close_approach_date": "1906-09-26",
            "close_approach_date_full": "1906-Sep-26 11:12",
            "epoch_date_close_approach": -1996490880000,
            "relative_velocity": {
                "kilometers_per_second": "24.8892438167",
                "kilometers_per_hour": "89601.277739989",
                "miles_per_hour": "55674.7494934948"
            },
            "miss_distance": {
                "astronomical": "0.3523447096",
                "lunar": "137.0620920344",
                "kilometers": "52710018.061928552",
                "miles": "32752486.4707039376"
            },
            "orbiting_body": "Earth"
        },
        {
            "close_approach_date": "2012-10-18",
            "close_approach_date_full": "2012-Oct-18 23:51",
            "epoch_date_close_approach": 1350604260000,
            "relative_velocity": {
                "kilometers_per_second": "14.7037174047",
                "kilometers_per_hour": "52933.3826569967",
                "miles_per_hour": "32890.7454626211"
            },
            "miss_distance": {
                "astronomical": "0.0184835871",
                "lunar": "7.1901153819",
                "kilometers": "2765105.260119477",
                "miles": "1718156.7366517026"
            },
            "orbiting_body": "Earth"
        }
    ],
    "orbital_data": {
        "orbit_id": "12",
        "orbit_determination_date": "2017-04-06 08:48:40",
        "first_observation_date": "2012-10-09",
        "last_observation_date": "2012-10-19",
        "data_arc_in_days": 10,
        "observations_used": 73,
        "orbit_uncertainty": "8",
        "minimum_orbit_intersection": ".0183645",
        "jupiter_tisserand_invariant": "3.605",
        "epoch_osculation": "2456210.5",
        "eccentricity": ".5963031934097509",
        "semi_major_axis": "1.982748484685748",
        "inclination": "8.124090271990761",
        "ascending_node_longitude": "199.0026504493541",
        "orbital_period": "1019.764447350608",
        "perihelion_distance": ".8004292315392919",
        "perihelion_argument": "249.5879074471097",
        "aphelion_distance": "3.165067737832204",
        "perihelion_time": "2456261.663703742255",
        "mean_anomaly": "341.9380510910485",
        "mean_motion": ".3530227014045209",
        "equinox": "J2000",
        "orbit_class": {
            "orbit_class_type": "APO",
            "orbit_class_description": "Near-Earth asteroid orbits which cross the Earth’s orbit similar to that of 1862 Apollo",
            "orbit_class_range": "a (semi-major axis) > 1.0 AU; q (perihelion) < 1.017 AU"
        }
    },
    "is_sentry_object": false
}